[{"OBJECT_NAME":"STARLINK-6191","OBJECT_ID":"2023-061E","EPOCH":"2026-03-09T22:00:01.999584","MEAN_MOTION":15.17749131,"ECCENTRICITY":0.00020752,"INCLINATION":42.9995,"RA_OF_ASC_NODE":195.7809,"ARG_OF_PERICENTER":287.3386,"MEAN_ANOMALY":87.7798,"EPHEMERIS_TYPE":0,"CLASSIFICATION_TYPE":"U","NORAD_CAT_ID":56378,"ELEMENT_SET_NO":999,"REV_AT_EPOCH":567,"BSTAR":0.055577175,"MEAN_MOTION_DOT":0.01251743,"MEAN_MOTION_DDOT":0},{"OBJECT_NAME":"PIAST-M","OBJECT_ID":"2025-276CW","EPOCH":"2026-03-09T17:04:49.285920","MEAN_MOTION":15.19194203,"ECCENTRICITY":7.473e-5,"INCLINATION":97.4255,"RA_OF_ASC_NODE":144.0316,"ARG_OF_PERICENTER":58.1322,"MEAN_ANOMALY":301.9986,"EPHEMERIS_TYPE":0,"CLASSIFICATION_TYPE":"U","NORAD_CAT_ID":66758,"ELEMENT_SET_NO":999,"REV_AT_EPOCH":1532,"BSTAR":0.00030409287,"MEAN_MOTION_DOT":6.332e-5,"MEAN_MOTION_DDOT":0}]
